CZ-2D R/B               
1 28738U 05024B   26064.02650159  .00044976  00000+0  56275-3 0  9992
2 28738  97.3597  79.0025 0006470  59.0946 301.0946 15.59659857139054
ALOS (DAICHI)           
1 28931U 06002A   26064.28214820  .00002101  00000+0  36025-3 0  9998
2 28931  98.1211  20.2599 0001093  51.5775 308.5529 14.69793936 72836
H-2A R/B                
1 28932U 06002B   26064.31991679  .00011969  00000+0  60055-3 0  9999
2 28932  98.2403 210.9685 0051831 256.0075 103.5389 15.16307186 93779
RESURS-DK 1             
1 29228U 06021A   26064.23736051  .00003728  00000+0  21847-3 0  9991
2 29228  69.9306 248.5408 0002348 164.3979 195.7259 15.12706661 86855
CZ-4B R/B               
1 29507U 06046C   26064.12347149  .00006347  00000+0  32200-3 0  9997
2 29507  97.5599 109.0443 0031656 283.9098  75.8614 15.16848388 59355
CZ-2C R/B               
1 31114U 07010B   26064.21707899  .00000188  00000+0  10546-3 0  9994
2 31114  98.3977 177.7202 0058011 307.8622  51.7316 14.20244419979081
COSMO-SKYMED 1          
1 31598U 07023A   26064.31835934  .00004659  00000+0  41537-3 0  9998
2 31598  97.8862 255.3157 0000859  96.0751 264.0568 14.96493219 14257
COSMOS 2428             
1 31792U 07029A   26063.50827164  .00000067  00000+0  61426-4 0  9995
2 31792  70.9424 214.2185 0008843 282.5735  77.4396 14.12944763963362
SL-16 R/B               
1 31793U 07029B   26064.31376444 -.00000102  00000+0 -28076-4 0  9992
2 31793  70.9756 181.5824 0002365 277.5436 103.4977 14.14833599964757
KORONAS-FOTON           
1 33504U 09003A   26064.09581554  .00014608  00000+0  32767-3 0  9998
2 33504  82.4277 280.6547 0010878 165.1582 194.9987 15.43198328945033
CZ-2C R/B               
1 37731U 11030B   26064.30735718  .00002612  00000+0  33447-3 0  9992
2 37731  97.8539  21.6582 0052823   6.3790 155.2588 14.81201944789443
H-2A R/B                
1 38341U 12025E   26064.31164166  .00005626  00000+0  50942-3 0  9996
2 38341  98.4722  31.0070 0043654 328.9521  30.9118 14.95120839747569
SHIJIAN-16 (SJ-16)      
1 39358U 13057A   26064.27146858  .00006250  00000+0  61235-3 0  9995
2 39358  74.9733 193.4508 0015597 123.9017 236.3657 14.92325706670849
SL-4 R/B                
1 39679U 14021B   26064.21366335  .00019612  00000+0  43144-3 0  9996
2 39679  51.6094 359.1115 0097883  86.6279 274.5896 15.39008154655585
ALOS-2                  
1 39766U 14029A   26064.25511830  .00000987  00000+0  13904-3 0  9993
2 39766  97.9202 162.9165 0001456 101.6217 258.5158 14.79481811636212
YAOGAN-29               
1 41038U 15069A   26064.34131013  .00000392  00000+0  54869-4 0  9990
2 41038  98.0144  92.7588 0002160  42.7861 317.3520 14.82988914555235
