[{"OBJECT_NAME":"CZ-2D R/B","OBJECT_ID":"2005-024B","EPOCH":"2026-03-05T00:38:09.737376","MEAN_MOTION":15.59659857,"ECCENTRICITY":0.00064703,"INCLINATION":97.3597,"RA_OF_ASC_NODE":79.0025,"ARG_OF_PERICENTER":59.0946,"MEAN_ANOMALY":301.0946,"EPHEMERIS_TYPE":0,"CLASSIFICATION_TYPE":"U","NORAD_CAT_ID":28738,"ELEMENT_SET_NO":999,"REV_AT_EPOCH":13905,"BSTAR":0.00056274593,"MEAN_MOTION_DOT":0.00044976,"MEAN_MOTION_DDOT":0},{"OBJECT_NAME":"ALOS (DAICHI)","OBJECT_ID":"2006-002A","EPOCH":"2026-03-05T06:46:17.604480","MEAN_MOTION":14.69793936,"ECCENTRICITY":0.00010936,"INCLINATION":98.1211,"RA_OF_ASC_NODE":20.2599,"ARG_OF_PERICENTER":51.5775,"MEAN_ANOMALY":308.5529,"EPHEMERIS_TYPE":0,"CLASSIFICATION_TYPE":"U","NORAD_CAT_ID":28931,"ELEMENT_SET_NO":999,"REV_AT_EPOCH":7283,"BSTAR":0.00036024796,"MEAN_MOTION_DOT":2.101e-5,"MEAN_MOTION_DDOT":0},{"OBJECT_NAME":"H-2A R/B","OBJECT_ID":"2006-002B","EPOCH":"2026-03-05T07:40:40.810656","MEAN_MOTION":15.16307186,"ECCENTRICITY":0.00518311,"INCLINATION":98.2403,"RA_OF_ASC_NODE":210.9685,"ARG_OF_PERICENTER":256.0075,"MEAN_ANOMALY":103.5389,"EPHEMERIS_TYPE":0,"CLASSIFICATION_TYPE":"U","NORAD_CAT_ID":28932,"ELEMENT_SET_NO":999,"REV_AT_EPOCH":9377,"BSTAR":0.00060054528,"MEAN_MOTION_DOT":0.00011969,"MEAN_MOTION_DDOT":0},{"OBJECT_NAME":"RESURS-DK 1","OBJECT_ID":"2006-021A","EPOCH":"2026-03-05T05:41:47.948064","MEAN_MOTION":15.12706661,"ECCENTRICITY":0.00023483,"INCLINATION":69.9306,"RA_OF_ASC_NODE":248.5408,"ARG_OF_PERICENTER":164.3979,"MEAN_ANOMALY":195.7259,"EPHEMERIS_TYPE":0,"CLASSIFICATION_TYPE":"U","NORAD_CAT_ID":29228,"ELEMENT_SET_NO":999,"REV_AT_EPOCH":8685,"BSTAR":0.00021846652,"MEAN_MOTION_DOT":3.728e-5,"MEAN_MOTION_DDOT":0},{"OBJECT_NAME":"CZ-4B R/B","OBJECT_ID":"2006-046C","EPOCH":"2026-03-05T02:57:47.936736","MEAN_MOTION":15.16848388,"ECCENTRICITY":0.00316562,"INCLINATION":97.5599,"RA_OF_ASC_NODE":109.0443,"ARG_OF_PERICENTER":283.9098,"MEAN_ANOMALY":75.8614,"EPHEMERIS_TYPE":0,"CLASSIFICATION_TYPE":"U","NORAD_CAT_ID":29507,"ELEMENT_SET_NO":999,"REV_AT_EPOCH":5935,"BSTAR":0.00032200388,"MEAN_MOTION_DOT":6.347e-5,"MEAN_MOTION_DDOT":0},{"OBJECT_NAME":"CZ-2C R/B","OBJECT_ID":"2007-010B","EPOCH":"2026-03-05T05:12:35.624736","MEAN_MOTION":14.20244419,"ECCENTRICITY":0.00580115,"INCLINATION":98.3977,"RA_OF_ASC_NODE":177.7202,"ARG_OF_PERICENTER":307.8622,"MEAN_ANOMALY":51.7316,"EPHEMERIS_TYPE":0,"CLASSIFICATION_TYPE":"U","NORAD_CAT_ID":31114,"ELEMENT_SET_NO":999,"REV_AT_EPOCH":97908,"BSTAR":0.00010545817,"MEAN_MOTION_DOT":1.88e-6,"MEAN_MOTION_DDOT":0},{"OBJECT_NAME":"COSMO-SKYMED 1","OBJECT_ID":"2007-023A","EPOCH":"2026-03-05T07:38:26.246976","MEAN_MOTION":14.96493219,"ECCENTRICITY":8.598e-5,"INCLINATION":97.8862,"RA_OF_ASC_NODE":255.3157,"ARG_OF_PERICENTER":96.0751,"MEAN_ANOMALY":264.0568,"EPHEMERIS_TYPE":0,"CLASSIFICATION_TYPE":"U","NORAD_CAT_ID":31598,"ELEMENT_SET_NO":999,"REV_AT_EPOCH":1425,"BSTAR":0.00041536928,"MEAN_MOTION_DOT":4.659e-5,"MEAN_MOTION_DDOT":0},{"OBJECT_NAME":"COSMOS 2428","OBJECT_ID":"2007-029A","EPOCH":"2026-03-04T12:11:54.669696","MEAN_MOTION":14.12944763,"ECCENTRICITY":0.00088436,"INCLINATION":70.9424,"RA_OF_ASC_NODE":214.2185,"ARG_OF_PERICENTER":282.5735,"MEAN_ANOMALY":77.4396,"EPHEMERIS_TYPE":0,"CLASSIFICATION_TYPE":"U","NORAD_CAT_ID":31792,"ELEMENT_SET_NO":999,"REV_AT_EPOCH":96336,"BSTAR":6.1425717e-5,"MEAN_MOTION_DOT":6.7e-7,"MEAN_MOTION_DDOT":0},{"OBJECT_NAME":"SL-16 R/B","OBJECT_ID":"2007-029B","EPOCH":"2026-03-05T07:31:49.247616","MEAN_MOTION":14.14833599,"ECCENTRICITY":0.00023656,"INCLINATION":70.9756,"RA_OF_ASC_NODE":181.5824,"ARG_OF_PERICENTER":277.5436,"MEAN_ANOMALY":103.4977,"EPHEMERIS_TYPE":0,"CLASSIFICATION_TYPE":"U","NORAD_CAT_ID":31793,"ELEMENT_SET_NO":999,"REV_AT_EPOCH":96475,"BSTAR":-2.8075786e-5,"MEAN_MOTION_DOT":-1.02e-6,"MEAN_MOTION_DDOT":0},{"OBJECT_NAME":"KORONAS-FOTON","OBJECT_ID":"2009-003A","EPOCH":"2026-03-05T02:17:58.462656","MEAN_MOTION":15.43198328,"ECCENTRICITY":0.00108784,"INCLINATION":82.4277,"RA_OF_ASC_NODE":280.6547,"ARG_OF_PERICENTER":165.1582,"MEAN_ANOMALY":194.9987,"EPHEMERIS_TYPE":0,"CLASSIFICATION_TYPE":"U","NORAD_CAT_ID":33504,"ELEMENT_SET_NO":999,"REV_AT_EPOCH":94503,"BSTAR":0.00032767396,"MEAN_MOTION_DOT":0.00014608,"MEAN_MOTION_DDOT":0},{"OBJECT_NAME":"CZ-2C R/B","OBJECT_ID":"2011-030B","EPOCH":"2026-03-05T07:22:35.660352","MEAN_MOTION":14.81201944,"ECCENTRICITY":0.00528236,"INCLINATION":97.8539,"RA_OF_ASC_NODE":21.6582,"ARG_OF_PERICENTER":6.379,"MEAN_ANOMALY":155.2588,"EPHEMERIS_TYPE":0,"CLASSIFICATION_TYPE":"U","NORAD_CAT_ID":37731,"ELEMENT_SET_NO":999,"REV_AT_EPOCH":78944,"BSTAR":0.00033447124,"MEAN_MOTION_DOT":2.612e-5,"MEAN_MOTION_DDOT":0},{"OBJECT_NAME":"H-2A R/B","OBJECT_ID":"2012-025E","EPOCH":"2026-03-05T07:28:45.839424","MEAN_MOTION":14.95120839,"ECCENTRICITY":0.00436545,"INCLINATION":98.4722,"RA_OF_ASC_NODE":31.007,"ARG_OF_PERICENTER":328.9521,"MEAN_ANOMALY":30.9118,"EPHEMERIS_TYPE":0,"CLASSIFICATION_TYPE":"U","NORAD_CAT_ID":38341,"ELEMENT_SET_NO":999,"REV_AT_EPOCH":74756,"BSTAR":0.00050942437,"MEAN_MOTION_DOT":5.626e-5,"MEAN_MOTION_DDOT":0},{"OBJECT_NAME":"SHIJIAN-16 (SJ-16)","OBJECT_ID":"2013-057A","EPOCH":"2026-03-05T06:30:54.885312","MEAN_MOTION":14.92325706,"ECCENTRICITY":0.00155976,"INCLINATION":74.9733,"RA_OF_ASC_NODE":193.4508,"ARG_OF_PERICENTER":123.9017,"MEAN_ANOMALY":236.3657,"EPHEMERIS_TYPE":0,"CLASSIFICATION_TYPE":"U","NORAD_CAT_ID":39358,"ELEMENT_SET_NO":999,"REV_AT_EPOCH":67084,"BSTAR":0.00061235097,"MEAN_MOTION_DOT":6.25e-5,"MEAN_MOTION_DDOT":0},{"OBJECT_NAME":"SL-4 R/B","OBJECT_ID":"2014-021B","EPOCH":"2026-03-05T05:07:40.513440","MEAN_MOTION":15.39008154,"ECCENTRICITY":0.00978834,"INCLINATION":51.6094,"RA_OF_ASC_NODE":359.1115,"ARG_OF_PERICENTER":86.6279,"MEAN_ANOMALY":274.5896,"EPHEMERIS_TYPE":0,"CLASSIFICATION_TYPE":"U","NORAD_CAT_ID":39679,"ELEMENT_SET_NO":999,"REV_AT_EPOCH":65558,"BSTAR":0.00043144492,"MEAN_MOTION_DOT":0.00019612,"MEAN_MOTION_DDOT":0},{"OBJECT_NAME":"ALOS-2","OBJECT_ID":"2014-029A","EPOCH":"2026-03-05T06:07:22.221120","MEAN_MOTION":14.79481811,"ECCENTRICITY":0.00014566,"INCLINATION":97.9202,"RA_OF_ASC_NODE":162.9165,"ARG_OF_PERICENTER":101.6217,"MEAN_ANOMALY":258.5158,"EPHEMERIS_TYPE":0,"CLASSIFICATION_TYPE":"U","NORAD_CAT_ID":39766,"ELEMENT_SET_NO":999,"REV_AT_EPOCH":63621,"BSTAR":0.00013903589,"MEAN_MOTION_DOT":9.87e-6,"MEAN_MOTION_DDOT":0},{"OBJECT_NAME":"YAOGAN-29","OBJECT_ID":"2015-069A","EPOCH":"2026-03-05T08:11:29.195232","MEAN_MOTION":14.82988914,"ECCENTRICITY":0.00021609,"INCLINATION":98.0144,"RA_OF_ASC_NODE":92.7588,"ARG_OF_PERICENTER":42.7861,"MEAN_ANOMALY":317.352,"EPHEMERIS_TYPE":0,"CLASSIFICATION_TYPE":"U","NORAD_CAT_ID":41038,"ELEMENT_SET_NO":999,"REV_AT_EPOCH":55523,"BSTAR":5.486939e-5,"MEAN_MOTION_DOT":3.92e-6,"MEAN_MOTION_DDOT":0}]
